STARLINK-4458
1 53668U 22105W   26090.83335647 -.00639419  00000+0 -40427-1 0  9995
2 53668  97.6023 333.1265 0002341  77.5361 176.3132 15.11348743  5677
